ONEWEB-0158             
1 48054U 21025N   25186.59644053 -.00000209  00000+0 -60763-3 0  9996
2 48054  87.8955  29.0711 0001788  92.2600 267.8734 13.13467297208132
ONEWEB-0157             
1 48055U 21025P   25186.62183202  .00000307  00000+0  80529-3 0  9994
2 48055  87.8954  29.0769 0001889  72.7791 287.3545 13.13470114208073
ONEWEB-0162             
1 48056U 21025Q   25186.59799104 -.00000231  00000+0 -66836-3 0  9998
2 48056  87.8953  29.0798 0001767  85.4349 274.6982 13.13470162208044
ONEWEB-0155             
1 48057U 21025R   25186.60490513 -.00000078  00000+0 -24781-3 0  9995
2 48057  87.8952  29.0866 0002001  84.0004 276.1353 13.13470311208185
ONEWEB-0149             
1 48058U 21025S   25186.62691140  .00000316  00000+0  83166-3 0  9992
2 48058  87.8954  29.0773 0001583  85.4513 274.6797 13.13470179207994
ONEWEB-0148             
1 48059U 21025T   25186.58966244 -.00000321  00000+0 -91349-3 0  9998
2 48059  87.8957  29.1076 0001272  71.0336 289.0931 13.13469975208111
ONEWEB-0160             
1 48060U 21025U   25186.60659730 -.00000063  00000+0 -20746-3 0  9998
2 48060  87.8956  29.1015 0002051 111.4231 248.7117 13.13470482208061
ONEWEB-0163             
1 48061U 21025V   25186.59135824 -.00000277  00000+0 -79442-3 0  9994
2 48061  87.8954  29.0857 0001878  79.0252 281.1089 13.13471532208180
